SZ-21 MODULE            
1 66515U 25246C   25332.79257302  .00027933  00000+0  31952-3 0  9998
2 66515  41.4759 101.0637 0005247 174.1770 185.9131 15.61505105  2265
SHENZHOU-22             
1 66645U 25272A   25333.25988665  .00015582  00000+0  20255-3 0  9997
2 66645  41.4663  98.4914 0010669 292.2705  67.7001 15.58389811261781
CZ-2F R/B               
1 66646U 25272B   25330.47076975  .00449059  75676-5  29319-3 0  9998
2 66646  41.4431 114.9009 0121079 133.7676 227.3272 16.01945612   217
SOYUZ-MS 28             
1 66664U 25275A   25333.12495806  .00008872  00000+0  16795-3 0  9995
2 66664  51.6312 209.8765 0003736 181.3383 178.7596 15.49180644   332
SL-4 R/B                
1 66665U 25275B   25333.34681791  .08397088  12512-4  39285-3 0  9993
2 66665  51.6501 207.6669 0004581  68.9636 291.1882 16.43094745   331
